{
  "type": "FeatureCollection",
  "features": [
    {
      "type": "Feature",
      "properties": {
        "norad_id": 35616,
        "name": "IRIDIUM 33 DEB",
        "group": "iridium-33-debris",
        "lat": -28.43462972509467,
        "lon": 168.10451048783034,
        "alt_km": 624.4735605890728,
        "timestamp": "2025-12-11T22:43:47.655148+00:00",
        "meta_object_name": "IRIDIUM 33 DEB",
        "meta_object_id": "1997-051QN",
        "meta_epoch": "2025-12-11T10:26:51.153792",
        "meta_mean_motion": 14.81765908,
        "meta_eccentricity": 0.00099847,
        "meta_inclination": 86.3548,
        "meta_ra_of_asc_node": 346.3598,
        "meta_arg_of_pericenter": 167.762,
        "meta_mean_anomaly": 192.3847,
        "meta_ephemeris_type": 0,
        "meta_classification_type": "U",
        "meta_norad_cat_id": 35616,
        "meta_element_set_no": 999,
        "meta_rev_at_epoch": 87555,
        "meta_bstar": 0.0032912714,
        "meta_mean_motion_dot": 0.00026074,
        "meta_mean_motion_ddot": 0,
        "tle_line1": "1 35616U 97051QN  25345.43531428  .00026074  00000+0  32913-2 0  9990",
        "tle_line2": "2 35616  86.3548 346.3598 0009984 167.7620 192.3847 14.81765908875557"
      },
      "geometry": {
        "type": "Point",
        "coordinates": [
          168.10451048783034,
          -28.43462972509467
        ]
      }
    },
    {
      "type": "Feature",
      "properties": {
        "norad_id": 35618,
        "name": "IRIDIUM 33 DEB",
        "group": "iridium-33-debris",
        "lat": 58.315101110109914,
        "lon": -0.19981945933601866,
        "alt_km": 694.8981670256853,
        "timestamp": "2025-12-11T22:43:47.655158+00:00",
        "meta_object_name": "IRIDIUM 33 DEB",
        "meta_object_id": "1997-051QQ",
        "meta_epoch": "2025-12-05T07:42:53.148672",
        "meta_mean_motion": 14.52258119,
        "meta_eccentricity": 0.00302089,
        "meta_inclination": 86.3407,
        "meta_ra_of_asc_node": 356.7447,
        "meta_arg_of_pericenter": 46.3254,
        "meta_mean_anomaly": 314.0448,
        "meta_ephemeris_type": 0,
        "meta_classification_type": "U",
        "meta_norad_cat_id": 35618,
        "meta_element_set_no": 999,
        "meta_rev_at_epoch": 65286,
        "meta_bstar": 0.00091388234,
        "meta_mean_motion_dot": 3.753e-05,
        "meta_mean_motion_ddot": 0,
        "tle_line1": "1 35618U 97051QQ  25339.32144848  .00003753  00000+0  91388-3 0  9990",
        "tle_line2": "2 35618  86.3407 356.7447 0030208  46.3254 314.0448 14.52258119652865"
      },
      "geometry": {
        "type": "Point",
        "coordinates": [
          -0.19981945933601866,
          58.315101110109914
        ]
      }
    },
    {
      "type": "Feature",
      "properties": {
        "norad_id": 35620,
        "name": "IRIDIUM 33 DEB",
        "group": "iridium-33-debris",
        "lat": 80.7409601489132,
        "lon": -119.42133557285746,
        "alt_km": 858.7966190252446,
        "timestamp": "2025-12-11T22:43:47.655169+00:00",
        "meta_object_name": "IRIDIUM 33 DEB",
        "meta_object_id": "1997-051QS",
        "meta_epoch": "2025-12-11T08:59:05.054784",
        "meta_mean_motion": 14.37990276,
        "meta_eccentricity": 0.0141582,
        "meta_inclination": 86.389,
        "meta_ra_of_asc_node": 218.0298,
        "meta_arg_of_pericenter": 263.4882,
        "meta_mean_anomaly": 95.018,
        "meta_ephemeris_type": 0,
        "meta_classification_type": "U",
        "meta_norad_cat_id": 35620,
        "meta_element_set_no": 999,
        "meta_rev_at_epoch": 59946,
        "meta_bstar": 0.011007255,
        "meta_mean_motion_dot": 0.00037556,
        "meta_mean_motion_ddot": 0,
        "tle_line1": "1 35620U 97051QS  25345.37436406  .00037556  00000+0  11007-1 0  9995",
        "tle_line2": "2 35620  86.3890 218.0298 0141582 263.4882  95.0180 14.37990276599460"
      },
      "geometry": {
        "type": "Point",
        "coordinates": [
          -119.42133557285746,
          80.7409601489132
        ]
      }
    },
    {
      "type": "Feature",
      "properties": {
        "norad_id": 35622,
        "name": "IRIDIUM 33 DEB",
        "group": "iridium-33-debris",
        "lat": -22.811138130540336,
        "lon": -97.60719455832822,
        "alt_km": 553.9411458026661,
        "timestamp": "2025-12-11T22:43:47.655179+00:00",
        "meta_object_name": "IRIDIUM 33 DEB",
        "meta_object_id": "1997-051QU",
        "meta_epoch": "2025-12-11T12:26:38.806944",
        "meta_mean_motion": 15.04466568,
        "meta_eccentricity": 0.00064341,
        "meta_inclination": 86.2027,
        "meta_ra_of_asc_node": 264.2046,
        "meta_arg_of_pericenter": 344.2324,
        "meta_mean_anomaly": 193.3121,
        "meta_ephemeris_type": 0,
        "meta_classification_type": "U",
        "meta_norad_cat_id": 35622,
        "meta_element_set_no": 999,
        "meta_rev_at_epoch": 87341,
        "meta_bstar": 0.0089264167,
        "meta_mean_motion_dot": 0.00126966,
        "meta_mean_motion_ddot": 0,
        "tle_line1": "1 35622U 97051QU  25345.51850471  .00126966  00000+0  89264-2 0  9990",
        "tle_line2": "2 35622  86.2027 264.2046 0006434 344.2324 193.3121 15.04466568873416"
      },
      "geometry": {
        "type": "Point",
        "coordinates": [
          -97.60719455832822,
          -22.811138130540336
        ]
      }
    },
    {
      "type": "Feature",
      "properties": {
        "norad_id": 35628,
        "name": "IRIDIUM 33 DEB",
        "group": "iridium-33-debris",
        "lat": -85.93126235225668,
        "lon": -54.13590033461065,
        "alt_km": 674.2341294184134,
        "timestamp": "2025-12-11T22:43:47.655192+00:00",
        "meta_object_name": "IRIDIUM 33 DEB",
        "meta_object_id": "1997-051RA",
        "meta_epoch": "2025-12-11T08:24:09.987840",
        "meta_mean_motion": 14.67551588,
        "meta_eccentricity": 0.00105947,
        "meta_inclination": 86.3579,
        "meta_ra_of_asc_node": 9.695,
        "meta_arg_of_pericenter": 347.9048,
        "meta_mean_anomaly": 12.191,
        "meta_ephemeris_type": 0,
        "meta_classification_type": "U",
        "meta_norad_cat_id": 35628,
        "meta_element_set_no": 999,
        "meta_rev_at_epoch": 86426,
        "meta_bstar": 0.0026538687,
        "meta_mean_motion_dot": 0.00015105,
        "meta_mean_motion_ddot": 0,
        "tle_line1": "1 35628U 97051RA  25345.35011560  .00015105  00000+0  26539-2 0  9994",
        "tle_line2": "2 35628  86.3579   9.6950 0010594 347.9048  12.1910 14.67551588864267"
      },
      "geometry": {
        "type": "Point",
        "coordinates": [
          -54.13590033461065,
          -85.93126235225668
        ]
      }
    },
    {
      "type": "Feature",
      "properties": {
        "norad_id": 35631,
        "name": "IRIDIUM 33 DEB",
        "group": "iridium-33-debris",
        "lat": -45.94114748722783,
        "lon": -154.91850505665994,
        "alt_km": 744.9465470631476,
        "timestamp": "2025-12-11T22:43:47.655202+00:00",
        "meta_object_name": "IRIDIUM 33 DEB",
        "meta_object_id": "1997-051RD",
        "meta_epoch": "2025-12-11T08:29:06.309600",
        "meta_mean_motion": 14.47305653,
        "meta_eccentricity": 0.001885,
        "meta_inclination": 86.3673,
        "meta_ra_of_asc_node": 21.5727,
        "meta_arg_of_pericenter": 122.0874,
        "meta_mean_anomaly": 253.1598,
        "meta_ephemeris_type": 0,
        "meta_classification_type": "U",
        "meta_norad_cat_id": 35631,
        "meta_element_set_no": 999,
        "meta_rev_at_epoch": 87177,
        "meta_bstar": 0.00056547362,
        "meta_mean_motion_dot": 2.093e-05,
        "meta_mean_motion_ddot": 0,
        "tle_line1": "1 35631U 97051RD  25345.35354525  .00002093  00000+0  56547-3 0  9994",
        "tle_line2": "2 35631  86.3673  21.5727 0018850 122.0874 253.1598 14.47305653871774"
      },
      "geometry": {
        "type": "Point",
        "coordinates": [
          -154.91850505665994,
          -45.94114748722783
        ]
      }
    },
    {
      "type": "Feature",
      "properties": {
        "norad_id": 35680,
        "name": "IRIDIUM 33 DEB",
        "group": "iridium-33-debris",
        "lat": -85.80133041271996,
        "lon": -46.33445081729191,
        "alt_km": 722.9105882868625,
        "timestamp": "2025-12-11T22:43:47.655215+00:00",
        "meta_object_name": "IRIDIUM 33 DEB",
        "meta_object_id": "1997-051RJ",
        "meta_epoch": "2025-12-10T20:56:41.216928",
        "meta_mean_motion": 14.2086329,
        "meta_eccentricity": 0.015045,
        "meta_inclination": 86.1029,
        "meta_ra_of_asc_node": 22.3487,
        "meta_arg_of_pericenter": 284.4866,
        "meta_mean_anomaly": 255.1489,
        "meta_ephemeris_type": 0,
        "meta_classification_type": "U",
        "meta_norad_cat_id": 35680,
        "meta_element_set_no": 999,
        "meta_rev_at_epoch": 60674,
        "meta_bstar": 0.0056946,
        "meta_mean_motion_dot": 0.00013831,
        "meta_mean_motion_ddot": 0,
        "tle_line1": "1 35680U 97051RJ  25344.87269927  .00013831  00000+0  56946-2 0  9999",
        "tle_line2": "2 35680  86.1029  22.3487 0150450 284.4866 255.1489 14.20863290606741"
      },
      "geometry": {
        "type": "Point",
        "coordinates": [
          -46.33445081729191,
          -85.80133041271996
        ]
      }
    }
  ]
}